DMSP 5D-3 F16 (USA 172) 
1 28054U 03048A   26179.63342109  .00000005  00000+0  26104-4 0  9998
2 28054  98.9887 203.5374 0008124 111.7017 357.7873 14.14483839171102
METEOSAT-9 (MSG-2)      
1 28912U 05049B   26178.81526571  .00000126  00000+0  00000+0 0  9996
2 28912   9.3846  54.0636 0001958 358.6343 202.4759  1.00278089  7105
DMSP 5D-3 F17 (USA 191) 
1 29522U 06050A   26179.62492076  .00000042  00000+0  43883-4 0  9997
2 29522  98.7379 185.9610 0010693  29.3936 330.7837 14.14994380 14049
FENGYUN 3A              
1 32958U 08026A   26179.53614180  .00000055  00000+0  46655-4 0  9995
2 32958  98.6885 120.1572 0009884  94.4870 265.7435 14.19573373937017
GOES 14                 
1 35491U 09033A   26179.54595010 -.00000318  00000+0  00000+0 0  9992
2 35491   1.7185  82.9168 0002284  21.0240 144.4333  1.00107544  6702
DMSP 5D-3 F18 (USA 210) 
1 35951U 09057A   26179.59704356  .00000219  00000+0  13642-3 0  9998
2 35951  98.9042 160.3416 0010266 213.9446 146.1072 14.14902946861200
EWS-G2 (GOES 15)        
1 36411U 10008A   26179.53171091  .00000031  00000+0  00000+0 0  9998
2 36411   1.3082  82.6918 0005379  43.7185  45.1609  1.00268076 59758
COMS 1                  
1 36744U 10032A   26179.23980426  .00000015  00000+0  00000+0 0  9993
2 36744   4.8326  75.2282 0011911  13.1014 303.7252  0.99167386 51195
FENGYUN 3B              
1 37214U 10059A   26179.63989178  .00000547  00000+0  30581-3 0  9993
2 37214  98.9620 225.7029 0022516 151.7820  16.9591 14.14845717809044
SUOMI NPP               
1 37849U 11061A   26179.61830537  .00000042  00000+0  40972-4 0  9999
2 37849  98.7955 120.4163 0000889 330.9227  29.1899 14.19519569760061
METEOSAT-10 (MSG-3)     
1 38552U 12035B   26179.30530615  .00000001  00000+0  00000+0 0  9991
2 38552   4.6970  60.9700 0001743  10.8080 314.7000  1.00268938 50967
METOP-B                 
1 38771U 12049A   26179.59296600  .00000100  00000+0  65770-4 0  9993
2 38771  98.6499 230.8644 0001525 344.3768  15.7362 14.21442271714888
INSAT-3D                
1 39216U 13038B   26179.54482344 -.00000329  00000+0  00000+0 0  9998
2 39216   1.9546  82.4095 0001165   6.0514 153.8336  1.00271038 47197
FENGYUN 3C              
1 39260U 13052A   26179.63425594  .00000059  00000+0  51340-4 0  9994
2 39260  98.4984 152.9837 0014578 355.4022   4.7017 14.15757466660181
METEOR-M 2              
1 40069U 14037A   26179.61916583  .00000173  00000+0  98244-4 0  9999
2 40069  98.5112 154.9525 0006178  15.1160 345.0202 14.21464799620948
HIMAWARI-8              
1 40267U 14060A   26179.61824623 -.00000264  00000+0  00000+0 0  9998
2 40267   0.0171 345.6353 0001133 110.1256 184.1829  1.00273628 42876
FENGYUN 2G              
1 40367U 14090A   26179.62251425 -.00000295  00000+0  00000+0 0  9991
2 40367   5.6676  72.6816 0003609 149.7545  18.0114  1.00268414 42114
METEOSAT-11 (MSG-4)     
1 40732U 15034A   26179.59231616  .00000070  00000+0  00000+0 0  9992
2 40732   3.2291  71.0396 0002238 347.8220  80.4498  1.00266643  7336
ELEKTRO-L 2             
1 41105U 15074A   26178.94596200 -.00000113  00000+0  00000+0 0  9991
2 41105   6.7214  70.3918 0000680 283.3260 248.3287  1.00271140 38617
SENTINEL-3A             
1 41335U 16011A   26179.57760973  .00000097  00000+0  58209-4 0  9997
2 41335  98.6246 246.7975 0001431  96.3974 263.7369 14.26735611539683
INSAT-3DR               
1 41752U 16054A   26178.76511551 -.00000065  00000+0  00000+0 0  9990
2 41752   0.1323  86.1351 0010036 186.7215 352.4288  1.00272445 35920
HIMAWARI-9              
1 41836U 16064A   26179.55449083 -.00000264  00000+0  00000+0 0  9993
2 41836   0.0139  70.3013 0001216  46.5823 140.1353  1.00270461 35320
GOES 16                 
1 41866U 16071A   26179.56972771 -.00000080  00000+0  00000+0 0  9996
2 41866   0.3690  85.5127 0000604  14.5998 276.9601  1.00272098 35210
FENGYUN 4A              
1 41882U 16077A   26179.66168626 -.00000347  00000+0  00000+0 0  9993
2 41882   2.3513  80.1655 0007921 158.0647  40.3887  1.00278139 35047
CYGFM05                 
1 41884U 16078A   26179.40070338  .00021349  00000+0  28423-3 0  9997
2 41884  34.9548 186.3088 0008196 251.5993 108.3840 15.57132462530505
CYGFM04                 
1 41885U 16078B   26179.27212928  .00028980  00000+0  31854-3 0  9996
2 41885  34.9305 154.2860 0007155 286.4634  73.5305 15.62109072530733
CYGFM02                 
1 41886U 16078C   26179.31503935  .00034204  00000+0  33220-3 0  9998
2 41886  34.9386 148.2042 0008115 289.0667  70.9180 15.65207298530914
CYGFM01                 
1 41887U 16078D   26179.38446947  .00021769  00000+0  28234-3 0  9996
2 41887  34.9379 187.3825 0007960 246.1753 113.8137 15.57825367530459
CYGFM08                 
1 41888U 16078E   26179.38850622  .00026086  00000+0  30429-3 0  9992
2 41888  34.9410 166.6348 0009062 274.4686  85.5004 15.60572497530725
CYGFM07                 
1 41890U 16078G   26179.34695721  .00026567  00000+0  30887-3 0  9990
2 41890  34.9428 155.2438 0007533 286.9399  73.0500 15.60672540530746
CYGFM03                 
1 41891U 16078H   26179.31801684  .00026789  00000+0  31157-3 0  9992
2 41891  34.9384 157.3699 0007324 275.2357  84.7533 15.60662786530716
