OBJECT_NAME,OBJECT_ID,EPOCH,MEAN_MOTION,ECCENTRICITY,INCLINATION,RA_OF_ASC_NODE,ARG_OF_PERICENTER,MEAN_ANOMALY,EPHEMERIS_TYPE,CLASSIFICATION_TYPE,NORAD_CAT_ID,ELEMENT_SET_NO,REV_AT_EPOCH,BSTAR,MEAN_MOTION_DOT,MEAN_MOTION_DDOT
DMSP 5D-3 F16 (USA 172),2003-048A,2026-06-28T15:12:07.582176,14.14483839,.00081244,98.9887,203.5374,111.7017,357.7873,0,U,28054,999,17110,.26103727E-4,.5E-7,0
METEOSAT-9 (MSG-2),2005-049B,2026-06-27T19:33:58.957344,1.00278089,.00019584,9.3846,54.0636,358.6343,202.4759,0,U,28912,999,710,0,.126E-5,0
DMSP 5D-3 F17 (USA 191),2006-050A,2026-06-28T14:59:53.153664,14.14994380,.00106934,98.7379,185.9610,29.3936,330.7837,0,U,29522,999,1404,.43883338E-4,.42E-6,0
FENGYUN 3A,2008-026A,2026-06-28T12:52:02.651520,14.19573373,.00098844,98.6885,120.1572,94.4870,265.7435,0,U,32958,999,93701,.46654642E-4,.55E-6,0
GOES 14,2009-033A,2026-06-28T13:06:10.088640,1.00107544,.00022845,1.7185,82.9168,21.0240,144.4333,0,U,35491,999,670,0,-.318E-5,0
DMSP 5D-3 F18 (USA 210),2009-057A,2026-06-28T14:19:44.563584,14.14902946,.00102669,98.9042,160.3416,213.9446,146.1072,0,U,35951,999,86120,.13641679E-3,.219E-5,0
EWS-G2 (GOES 15),2010-008A,2026-06-28T12:45:39.822624,1.00268076,.0005379,1.3082,82.6918,43.7185,45.1609,0,U,36411,999,5975,0,.31E-6,0
COMS 1,2010-032A,2026-06-28T05:45:19.088064,0.99167386,.00119116,4.8326,75.2282,13.1014,303.7252,0,U,36744,999,5119,0,.15E-6,0
FENGYUN 3B,2010-059A,2026-06-28T15:21:26.649792,14.14845717,.00225161,98.9620,225.7029,151.7820,16.9591,0,U,37214,999,80904,.30580646E-3,.547E-5,0
SUOMI NPP,2011-061A,2026-06-28T14:50:21.583968,14.19519569,.00008891,98.7955,120.4163,330.9227,29.1899,0,U,37849,999,76006,.40971652E-4,.42E-6,0
METEOSAT-10 (MSG-3),2012-035B,2026-06-28T07:19:38.451360,1.00268938,.00017439,4.6970,60.9700,10.8080,314.7000,0,U,38552,999,5096,0,.1E-7,0
METOP-B,2012-049A,2026-06-28T14:13:52.262400,14.21442271,.00015259,98.6499,230.8644,344.3768,15.7362,0,U,38771,999,71488,.65769579E-4,.1E-5,0
INSAT-3D,2013-038B,2026-06-28T13:04:32.745216,1.00271038,.0001165,1.9546,82.4095,6.0514,153.8336,0,U,39216,999,4719,0,-.329E-5,0
FENGYUN 3C,2013-052A,2026-06-28T15:13:19.713216,14.15757466,.00145787,98.4984,152.9837,355.4022,4.7017,0,U,39260,999,66018,.51339699E-4,.59E-6,0
METEOR-M 2,2014-037A,2026-06-28T14:51:35.927712,14.21464799,.00061782,98.5112,154.9525,15.1160,345.0202,0,U,40069,999,62094,.98244054E-4,.173E-5,0
HIMAWARI-8,2014-060A,2026-06-28T14:50:16.474272,1.00273628,.0001133,0.0171,345.6353,110.1256,184.1829,0,U,40267,999,4287,0,-.264E-5,0
FENGYUN 2G,2014-090A,2026-06-28T14:56:25.231200,1.00268414,.00036099,5.6676,72.6816,149.7545,18.0114,0,U,40367,999,4211,0,-.295E-5,0
METEOSAT-11 (MSG-4),2015-034A,2026-06-28T14:12:56.116224,1.00266643,.00022383,3.2291,71.0396,347.8220,80.4498,0,U,40732,999,733,0,.7E-6,0
ELEKTRO-L 2,2015-074A,2026-06-27T22:42:11.116800,1.00271140,.000068,6.7214,70.3918,283.3260,248.3287,0,U,41105,999,3861,0,-.113E-5,0
SENTINEL-3A,2016-011A,2026-06-28T13:51:45.480672,14.26735611,.00014318,98.6246,246.7975,96.3974,263.7369,0,U,41335,999,53968,.58209318E-4,.97E-6,0
INSAT-3DR,2016-054A,2026-06-27T18:21:45.980064,1.00272445,.0010036,0.1323,86.1351,186.7215,352.4288,0,U,41752,999,3592,0,-.65E-6,0
HIMAWARI-9,2016-064A,2026-06-28T13:18:28.007712,1.00270461,.0001216,0.0139,70.3013,46.5823,140.1353,0,U,41836,999,3532,0,-.264E-5,0
GOES 16,2016-071A,2026-06-28T13:40:24.474144,1.00272098,.00006042,0.3690,85.5127,14.5998,276.9601,0,U,41866,999,3521,0,-.8E-6,0
FENGYUN 4A,2016-077A,2026-06-28T15:52:49.692864,1.00278139,.00079211,2.3513,80.1655,158.0647,40.3887,0,U,41882,999,3504,0,-.347E-5,0
CYGFM05,2016-078A,2026-06-28T09:37:00.772032,15.57132462,.00081969,34.9548,186.3088,251.5993,108.3840,0,U,41884,999,53050,.28422535E-3,.21349E-3,0
CYGFM04,2016-078B,2026-06-28T06:31:51.969792,15.62109072,.00071559,34.9305,154.2860,286.4634,73.5305,0,U,41885,999,53073,.31854323E-3,.2898E-3,0
CYGFM02,2016-078C,2026-06-28T07:33:39.399840,15.65207298,.00081156,34.9386,148.2042,289.0667,70.9180,0,U,41886,999,53091,.33220084E-3,.34204E-3,0
CYGFM01,2016-078D,2026-06-28T09:13:38.162208,15.57825367,.00079602,34.9379,187.3825,246.1753,113.8137,0,U,41887,999,53045,.28233905E-3,.21769E-3,0
CYGFM08,2016-078E,2026-06-28T09:19:26.937408,15.60572497,.00090625,34.9410,166.6348,274.4686,85.5004,0,U,41888,999,53072,.30429214E-3,.26086E-3,0
CYGFM07,2016-078G,2026-06-28T08:19:37.102944,15.60672540,.00075338,34.9428,155.2438,286.9399,73.0500,0,U,41890,999,53074,.30886535E-3,.26567E-3,0
CYGFM03,2016-078H,2026-06-28T07:37:56.654976,15.60662786,.00073249,34.9384,157.3699,275.2357,84.7533,0,U,41891,999,53071,.31157299E-3,.26789E-3,0
